[{"OBJECT_NAME":"SWARM B","OBJECT_ID":"2013-067A","EPOCH":"2026-03-09T22:20:48.706656","MEAN_MOTION":15.27862638,"ECCENTRICITY":0.00036996,"INCLINATION":87.749,"RA_OF_ASC_NODE":12.4162,"ARG_OF_PERICENTER":86.3179,"MEAN_ANOMALY":273.8493,"EPHEMERIS_TYPE":0,"CLASSIFICATION_TYPE":"U","NORAD_CAT_ID":39451,"ELEMENT_SET_NO":999,"REV_AT_EPOCH":66808,"BSTAR":0.00020534236,"MEAN_MOTION_DOT":5.616e-5,"MEAN_MOTION_DDOT":0},{"OBJECT_NAME":"STARLINK-31558","OBJECT_ID":"2024-045U","EPOCH":"2026-03-09T10:00:48.820608","MEAN_MOTION":15.27570414,"ECCENTRICITY":0.00012334,"INCLINATION":43.0028,"RA_OF_ASC_NODE":93.7396,"ARG_OF_PERICENTER":257.8157,"MEAN_ANOMALY":102.2556,"EPHEMERIS_TYPE":0,"CLASSIFICATION_TYPE":"U","NORAD_CAT_ID":59196,"ELEMENT_SET_NO":999,"REV_AT_EPOCH":11313,"BSTAR":3.7583813e-5,"MEAN_MOTION_DOT":7.72e-6,"MEAN_MOTION_DDOT":0}]
